1 29155U 06018A   11271.31735248 -.00000262  00000-0  10000-3 0  7591
2 29155 000.1262 077.5377 0003500 032.7664 295.5701 01.00262601 19611